{
  "last_updated": "2026-05-14T06:00:03.692690",
  "satellites": {
    "98592": {
      "name": "DUTHSat-2",
      "norad_id": "98592",
      "tle": "1 64530U 25135C   26133.25552227  .00007064  00000-0  27698-3 0  9991\n2 64530  97.4576 249.2127 0003564 321.9897  38.1089 15.26063207 49602",
      "epoch": "2026-05-13T06:07:57.124128",
      "fetched_at": "2026-05-14T06:00:03.808286",
      "source": "satnogs"
    },
    "98530": {
      "name": "LAMARR",
      "norad_id": "98530",
      "tle": "1 66673U 25276H   26026.90917087  .00034524  00000-0  16680-2 0  9998\n2 66673  97.4301 102.8338 0007597 141.5941 218.5835 15.18529012  8972",
      "epoch": "2026-01-26T21:49:12.363168",
      "fetched_at": "2026-01-28T06:00:02.884758",
      "source": "satnogs",
      "note": "Using previous TLE (fetch/manual failed today)"
    },
    "98529": {
      "name": "DIRAC",
      "norad_id": "98529",
      "tle": "1 66681U 25276R   26026.63281774  .00024563  00000-0  11745-2 0  9993\n2 66681  97.4280 102.5712 0006320 148.4115 211.7500 15.18972786  8932",
      "epoch": "2026-01-26T15:11:15.452736",
      "fetched_at": "2026-01-28T06:00:02.937152",
      "source": "satnogs",
      "note": "Using previous TLE (fetch/manual failed today)"
    },
    "98518": {
      "name": "MICE-1",
      "norad_id": "98518",
      "tle": "1 66684U 25276U   26133.46442805  .00002193  00000-0  10821-3 0  9990\n2 66684  97.4280 207.6761 0007120 111.1274 249.0722 15.18929499 25143",
      "epoch": "2026-05-13T11:08:46.583520",
      "fetched_at": "2026-05-14T06:00:03.993175",
      "source": "satnogs"
    },
    "68416": {
      "name": "PeakSat",
      "norad_id": "68416",
      "tle": "1 68416U 26067A   26133.44712605  .00004348  00000-0  21087-3 0  9990\n2 68416  97.4524  92.4779 0003733  62.7867 297.3748 15.19021135  6675",
      "epoch": "2026-05-13T10:43:51.690720",
      "fetched_at": "2026-05-14T06:00:04.052855",
      "source": "satnogs"
    },
    "98370": {
      "name": "OptiSat",
      "norad_id": "98370",
      "tle": "1 69696U 69696    26089.46895426  .00000000  00000-0  00000-0 0 00004\n2 69696 097.4414 038.3720 0003145 156.7651 191.1423 15.18459822000011",
      "epoch": "2026-03-30T11:15:17.648064",
      "fetched_at": "2026-04-17T12:47:18.541523",
      "source": "manual"
    },
    "68468": {
      "name": "ERMIS-1",
      "norad_id": "68468",
      "tle": "1 68468U 26067BE  26133.43785428  .00005540  00000-0  28257-3 0  9990\n2 68468  97.4531  92.3463 0007238 159.7888 200.3633 15.17121898  6664",
      "epoch": "2026-05-13T10:30:30.609792",
      "fetched_at": "2026-05-14T06:00:04.113453",
      "source": "satnogs"
    },
    "68420": {
      "name": "ERMIS-2",
      "norad_id": "68420",
      "tle": "1 68420U 26067E   26133.38197841  .00006022  00000-0  29005-3 0  9996\n2 68420  97.4457  92.3794 0002934  62.5869 297.5664 15.19108867  6669",
      "epoch": "2026-05-13T09:10:02.934624",
      "fetched_at": "2026-05-14T06:00:04.168932",
      "source": "satnogs"
    },
    "98367": {
      "name": "ERMIS-3",
      "norad_id": "98367",
      "tle": "1 68425U 26067K   26133.46185723  .00003020  00000-0  14997-3 0  9995\n2 68425  97.4567  92.4828 0003544  91.7571 268.4069 15.18432986  6675",
      "epoch": "2026-05-13T11:05:04.464672",
      "fetched_at": "2026-05-14T06:00:04.263407",
      "source": "satnogs"
    },
    "69021": {
      "name": "Helios",
      "norad_id": "69021",
      "tle": "1 69021U 26100AT  26133.86975659  .00004917  00000-0  23442-3 0  9996\n2 69021  97.4066  32.2926 0006700 103.1585 257.0398 15.19541706  1590",
      "epoch": "2026-05-13T20:52:26.969376",
      "fetched_at": "2026-05-14T06:00:04.335494",
      "source": "satnogs"
    },
    "69020": {
      "name": "Selene",
      "norad_id": "69020",
      "tle": "1 69020U 26100AS  26133.87042747  .00004884  00000-0  23354-3 0  9994\n2 69020  97.4081  32.2969 0006157  97.7128 262.4806 15.19444467  1590",
      "epoch": "2026-05-13T20:53:24.933408",
      "fetched_at": "2026-05-14T06:00:04.397451",
      "source": "satnogs"
    }
  },
  "fetch_log": []
}